{"type": "FeatureCollection", "features": [ {"type": "Feature", "properties": {"norad_id": 31716, "name": "FENGYUN 1C DEB", "group": "fengyun-1c-debris", "lat": 44.06677251855848, "lon": 68.84169878965109, "alt_km": 794.9365119573304, "timestamp": "2025-12-07T03:52:32.781089+00:00", "meta": {"OBJECT_NAME": "FENGYUN 1C DEB", "OBJECT_ID": "1999-025CDP", "EPOCH": "2025-11-29T04:21:28.587168", "MEAN_MOTION": 14.03517485, "ECCENTRICITY": 0.01287272, "INCLINATION": 98.5539, "RA_OF_ASC_NODE": 232.9562, "ARG_OF_PERICENTER": 129.7206, "MEAN_ANOMALY": 26.8865, "EPHEMERIS_TYPE": 0, "CLASSIFICATION_TYPE": "U", "NORAD_CAT_ID": 31716, "ELEMENT_SET_NO": 999, "REV_AT_EPOCH": 93929, "BSTAR": 0.0015991138, "MEAN_MOTION_DOT": 2.658e-05, "MEAN_MOTION_DDOT": 0}, "tle": {"line1": "1 31716U 99025CDP 25333.18158087  .00002658  00000+0  15991-2 0  9994", "line2": "2 31716  98.5539 232.9562 0128727 129.7206  26.8865 14.03517485939297"}}, "geometry": {"type": "Point", "coordinates": [68.84169878965109, 44.06677251855848]}}, {"type": "Feature", "properties": {"norad_id": 31720, "name": "FENGYUN 1C DEB", "group": "fengyun-1c-debris", "lat": -4.489101944651957, "lon": -106.82286509431489, "alt_km": 716.472353877778, "timestamp": "2025-12-07T03:52:32.781100+00:00", "meta": {"OBJECT_NAME": "FENGYUN 1C DEB", "OBJECT_ID": "1999-025CDT", "EPOCH": "2025-12-06T11:34:46.803360", "MEAN_MOTION": 14.71723784, "ECCENTRICITY": 0.00997846, "INCLINATION": 99.0473, "RA_OF_ASC_NODE": 251.706, "ARG_OF_PERICENTER": 142.8695, "MEAN_ANOMALY": 217.9466, "EPHEMERIS_TYPE": 0, "CLASSIFICATION_TYPE": "U", "NORAD_CAT_ID": 31720, "ELEMENT_SET_NO": 999, "REV_AT_EPOCH": 98144, "BSTAR": 0.001372845, "MEAN_MOTION_DOT": 9.204e-05, "MEAN_MOTION_DDOT": 0}, "tle": {"line1": "1 31720U 99025CDT 25340.48248615  .00009204  00000+0  13728-2 0  9997", "line2": "2 31720  99.0473 251.7060 0099784 142.8695 217.9466 14.71723784981445"}}, "geometry": {"type": "Point", "coordinates": [-106.82286509431489, -4.489101944651957]}}, {"type": "Feature", "properties": {"norad_id": 31721, "name": "FENGYUN 1C DEB", "group": "fengyun-1c-debris", "lat": -65.69201062633554, "lon": 118.19984923981488, "alt_km": 837.6626024800125, "timestamp": "2025-12-07T03:52:32.781110+00:00", "meta": {"OBJECT_NAME": "FENGYUN 1C DEB", "OBJECT_ID": "1999-025CDU", "EPOCH": "2025-12-02T16:57:49.832064", "MEAN_MOTION": 13.73762765, "ECCENTRICITY": 0.03172129, "INCLINATION": 99.7801, "RA_OF_ASC_NODE": 316.087, "ARG_OF_PERICENTER": 209.4664, "MEAN_ANOMALY": 336.1104, "EPHEMERIS_TYPE": 0, "CLASSIFICATION_TYPE": "U", "NORAD_CAT_ID": 31721, "ELEMENT_SET_NO": 999, "REV_AT_EPOCH": 67248, "BSTAR": 0.0004880859, "MEAN_MOTION_DOT": 6.09e-06, "MEAN_MOTION_DDOT": 0}, "tle": {"line1": "1 31721U 99025CDU 25336.70682676  .00000609  00000+0  48809-3 0  9996", "line2": "2 31721  99.7801 316.0870 0317212 209.4664 336.1104 13.73762765672484"}}, "geometry": {"type": "Point", "coordinates": [118.19984923981488, -65.69201062633554]}}, {"type": "Feature", "properties": {"norad_id": 31724, "name": "FENGYUN 1C DEB", "group": "fengyun-1c-debris", "lat": -3.4152614344324546, "lon": -12.004833524651024, "alt_km": 744.2567966703809, "timestamp": "2025-12-07T03:52:32.781121+00:00", "meta": {"OBJECT_NAME": "FENGYUN 1C DEB", "OBJECT_ID": "1999-025CDX", "EPOCH": "2025-12-04T06:16:47.265024", "MEAN_MOTION": 14.48822962, "ECCENTRICITY": 0.0152327, "INCLINATION": 97.8549, "RA_OF_ASC_NODE": 344.8228, "ARG_OF_PERICENTER": 268.5146, "MEAN_ANOMALY": 89.8595, "EPHEMERIS_TYPE": 0, "CLASSIFICATION_TYPE": "U", "NORAD_CAT_ID": 31724, "ELEMENT_SET_NO": 999, "REV_AT_EPOCH": 64369, "BSTAR": 0.0052478, "MEAN_MOTION_DOT": 0.00022998, "MEAN_MOTION_DDOT": 0}, "tle": {"line1": "1 31724U 99025CDX 25338.26165816  .00022998  00000+0  52478-2 0  9995", "line2": "2 31724  97.8549 344.8228 0152327 268.5146  89.8595 14.48822962643692"}}, "geometry": {"type": "Point", "coordinates": [-12.004833524651024, -3.4152614344324546]}}, {"type": "Feature", "properties": {"norad_id": 31725, "name": "FENGYUN 1C DEB", "group": "fengyun-1c-debris", "lat": -14.023602270105172, "lon": -158.5927194953361, "alt_km": 813.2416615614457, "timestamp": "2025-12-07T03:52:32.781131+00:00", "meta": {"OBJECT_NAME": "FENGYUN 1C DEB", "OBJECT_ID": "1999-025CDY", "EPOCH": "2025-12-02T20:42:08.608032", "MEAN_MOTION": 12.79133578, "ECCENTRICITY": 0.06941678, "INCLINATION": 99.1816, "RA_OF_ASC_NODE": 195.5644, "ARG_OF_PERICENTER": 356.9616, "MEAN_ANOMALY": 2.7374, "EPHEMERIS_TYPE": 0, "CLASSIFICATION_TYPE": "U", "NORAD_CAT_ID": 31725, "ELEMENT_SET_NO": 999, "REV_AT_EPOCH": 86355, "BSTAR": 0.0040627713, "MEAN_MOTION_DOT": 2.499e-05, "MEAN_MOTION_DDOT": 0}, "tle": {"line1": "1 31725U 99025CDY 25336.86259963  .00002499  00000+0  40628-2 0  9995", "line2": "2 31725  99.1816 195.5644 0694167 356.9616   2.7374 12.79133578863553"}}, "geometry": {"type": "Point", "coordinates": [-158.5927194953361, -14.023602270105172]}}, {"type": "Feature", "properties": {"norad_id": 31727, "name": "FENGYUN 1C DEB", "group": "fengyun-1c-debris", "lat": -62.906038538430415, "lon": -104.72503094811158, "alt_km": 784.8597675876235, "timestamp": "2025-12-07T03:52:32.781141+00:00", "meta": {"OBJECT_NAME": "FENGYUN 1C DEB", "OBJECT_ID": "1999-025CEA", "EPOCH": "2025-12-04T13:11:26.155392", "MEAN_MOTION": 14.36874527, "ECCENTRICITY": 0.0032129, "INCLINATION": 98.8664, "RA_OF_ASC_NODE": 90.3509, "ARG_OF_PERICENTER": 5.4028, "MEAN_ANOMALY": 55.9527, "EPHEMERIS_TYPE": 0, "CLASSIFICATION_TYPE": "U", "NORAD_CAT_ID": 31727, "ELEMENT_SET_NO": 999, "REV_AT_EPOCH": 71551, "BSTAR": 0.0042451, "MEAN_MOTION_DOT": 0.00012602, "MEAN_MOTION_DDOT": 0}, "tle": {"line1": "1 31727U 99025CEA 25338.54960828  .00012602  00000+0  42451-2 0  9996", "line2": "2 31727  98.8664  90.3509 0032129   5.4028  55.9527 14.36874527715514"}}, "geometry": {"type": "Point", "coordinates": [-104.72503094811158, -62.906038538430415]}}, {"type": "Feature", "properties": {"norad_id": 31731, "name": "FENGYUN 1C DEB", "group": "fengyun-1c-debris", "lat": -5.442464914098346, "lon": 29.78279935591032, "alt_km": 765.7787881841823, "timestamp": "2025-12-07T03:52:32.781152+00:00", "meta": {"OBJECT_NAME": "FENGYUN 1C DEB", "OBJECT_ID": "1999-025CEE", "EPOCH": "2025-11-27T02:07:07.827456", "MEAN_MOTION": 14.40063792, "ECCENTRICITY": 0.00116613, "INCLINATION": 99.3084, "RA_OF_ASC_NODE": 17.9462, "ARG_OF_PERICENTER": 144.9647, "MEAN_ANOMALY": 215.2308, "EPHEMERIS_TYPE": 0, "CLASSIFICATION_TYPE": "U", "NORAD_CAT_ID": 31731, "ELEMENT_SET_NO": 999, "REV_AT_EPOCH": 95605, "BSTAR": 0.0018623031, "MEAN_MOTION_DOT": 5.831e-05, "MEAN_MOTION_DDOT": 0}, "tle": {"line1": "1 31731U 99025CEE 25331.08828504  .00005831  00000+0  18623-2 0  9997", "line2": "2 31731  99.3084  17.9462 0011661 144.9647 215.2308 14.40063792956051"}}, "geometry": {"type": "Point", "coordinates": [29.78279935591032, -5.442464914098346]}}, {"type": "Feature", "properties": {"norad_id": 31732, "name": "FENGYUN 1C DEB", "group": "fengyun-1c-debris", "lat": 60.11052728368101, "lon": -148.62806224054052, "alt_km": 868.7063747011216, "timestamp": "2025-12-07T03:52:32.781163+00:00", "meta": {"OBJECT_NAME": "FENGYUN 1C DEB", "OBJECT_ID": "1999-025CEF", "EPOCH": "2025-11-30T13:10:34.039776", "MEAN_MOTION": 14.12230042, "ECCENTRICITY": 0.0039396, "INCLINATION": 98.5746, "RA_OF_ASC_NODE": 9.8282, "ARG_OF_PERICENTER": 281.0233, "MEAN_ANOMALY": 78.651, "EPHEMERIS_TYPE": 0, "CLASSIFICATION_TYPE": "U", "NORAD_CAT_ID": 31732, "ELEMENT_SET_NO": 999, "REV_AT_EPOCH": 64158, "BSTAR": 0.00035101, "MEAN_MOTION_DOT": 6.08e-06, "MEAN_MOTION_DDOT": 0}, "tle": {"line1": "1 31732U 99025CEF 25334.54900509  .00000608  00000+0  35101-3 0  9996", "line2": "2 31732  98.5746   9.8282 0039396 281.0233  78.6510 14.12230042641585"}}, "geometry": {"type": "Point", "coordinates": [-148.62806224054052, 60.11052728368101]}}, {"type": "Feature", "properties": {"norad_id": 31734, "name": "FENGYUN 1C DEB", "group": "fengyun-1c-debris", "lat": 46.29352439983527, "lon": -35.5557882444211, "alt_km": 722.1170150742892, "timestamp": "2025-12-07T03:52:32.781173+00:00", "meta": {"OBJECT_NAME": "FENGYUN 1C DEB", "OBJECT_ID": "1999-025CEH", "EPOCH": "2025-12-06T05:48:55.273824", "MEAN_MOTION": 14.2899136, "ECCENTRICITY": 0.01042237, "INCLINATION": 98.4964, "RA_OF_ASC_NODE": 332.5458, "ARG_OF_PERICENTER": 26.6409, "MEAN_ANOMALY": 334.0076, "EPHEMERIS_TYPE": 0, "CLASSIFICATION_TYPE": "U", "NORAD_CAT_ID": 31734, "ELEMENT_SET_NO": 999, "REV_AT_EPOCH": 96358, "BSTAR": 0.00087093686, "MEAN_MOTION_DOT": 2.293e-05, "MEAN_MOTION_DDOT": 0}, "tle": {"line1": "1 31734U 99025CEH 25340.24230641  .00002293  00000+0  87094-3 0  9995", "line2": "2 31734  98.4964 332.5458 0104223  26.6409 334.0076 14.28991360963586"}}, "geometry": {"type": "Point", "coordinates": [-35.5557882444211, 46.29352439983527]}}, {"type": "Feature", "properties": {"norad_id": 31735, "name": "FENGYUN 1C DEB", "group": "fengyun-1c-debris", "lat": 42.08566756057606, "lon": 76.62262391129607, "alt_km": 754.7442774910978, "timestamp": "2025-12-07T03:52:32.781183+00:00", "meta": {"OBJECT_NAME": "FENGYUN 1C DEB", "OBJECT_ID": "1999-025CEJ", "EPOCH": "2025-12-05T13:23:26.219904", "MEAN_MOTION": 14.42513767, "ECCENTRICITY": 0.00590436, "INCLINATION": 98.5803, "RA_OF_ASC_NODE": 82.8467, "ARG_OF_PERICENTER": 306.2546, "MEAN_ANOMALY": 53.3196, "EPHEMERIS_TYPE": 0, "CLASSIFICATION_TYPE": "U", "NORAD_CAT_ID": 31735, "ELEMENT_SET_NO": 999, "REV_AT_EPOCH": 96561, "BSTAR": 0.00073357883, "MEAN_MOTION_DOT": 2.437e-05, "MEAN_MOTION_DDOT": 0}, "tle": {"line1": "1 31735U 99025CEJ 25339.55794236  .00002437  00000+0  73358-3 0  9991", "line2": "2 31735  98.5803  82.8467 0059043 306.2546  53.3196 14.42513767965610"}}, "geometry": {"type": "Point", "coordinates": [76.62262391129607, 42.08566756057606]}}]}